{"type": "FeatureCollection", "features": [ {"type": "Feature", "properties": {"norad_id": 61183, "name": "GSAT0226 (GALILEO 31)", "group": "galileo", "lat": 4.700118894099954, "lon": 43.26933877962408, "alt_km": 23220.458079207423, "timestamp": "2025-12-09T07:41:33.471017+00:00", "meta": {"OBJECT_NAME": "GSAT0226 (GALILEO 31)", "OBJECT_ID": "2024-167B", "EPOCH": "2025-12-08T04:07:13.318752", "MEAN_MOTION": 1.70473397, "ECCENTRICITY": 7.979e-05, "INCLINATION": 55.2409, "RA_OF_ASC_NODE": 226.5616, "ARG_OF_PERICENTER": 122.0254, "MEAN_ANOMALY": 67.2121, "EPHEMERIS_TYPE": 0, "CLASSIFICATION_TYPE": "U", "NORAD_CAT_ID": 61183, "ELEMENT_SET_NO": 999, "REV_AT_EPOCH": 759, "BSTAR": 0, "MEAN_MOTION_DOT": 1.9e-07, "MEAN_MOTION_DDOT": 0}, "tle": {"line1": "1 61183U 24167B   25342.17168193  .00000019  00000+0  00000+0 0  9999", "line2": "2 61183  55.2409 226.5616 0000797 122.0254  67.2121  1.70473397  7594"}}, "geometry": {"type": "Point", "coordinates": [43.26933877962408, 4.700118894099954]}}]}